start=new Date('2022-07-20T00:00:00.000Z').valueOf();
sats=[{"MEAN_MOTION_DDOT":"0.0000000000000","LAUNCH_DATE":"2021-04-07","FILE":"3517796","ECCENTRICITY":"0.00013540","APOAPSIS":"548.145","INCLINATION":"53.0555","REV_AT_EPOCH":"7214","ARG_OF_PERICENTER":"91.8236","TLE_LINE1":"1 48120U 21027AE  22200.87545304  .00002801  00000-0  20685-3 0  9994","SITE":"AFETR","OBJECT_ID":"2021-027AE","MEAN_ANOMALY":"268.2908","CENTER_NAME":"EARTH","CLASSIFICATION_TYPE":"U","TLE_LINE2":"2 48120  53.0555  16.9016 0001354  91.8236 268.2908 15.06402036 72141","OBJECT_NAME":"STARLINK-2460","GP_ID":"208471664","MEAN_MOTION":"15.06402036","ELEMENT_SET_NO":"999","RCS_SIZE":"LARGE","MEAN_MOTION_DOT":"0.00002801","EPOCH":"2022-07-19T21:00:39.142656","MEAN_ELEMENT_THEORY":"SGP4","BSTAR":"0.00020685000000","RA_OF_ASC_NODE":"16.9016","PERIAPSIS":"546.270","NORAD_CAT_ID":"48120","COUNTRY_CODE":"US","PERIOD":"95.592","SEMIMAJOR_AXIS":"6925.342","DECAY_DATE":null,"REF_FRAME":"TEME","OBJECT_TYPE":"PAYLOAD","TIME_SYSTEM":"UTC","EPHEMERIS_TYPE":"0"},{"FILE":"3517796","LAUNCH_DATE":"2021-04-07","MEAN_MOTION_DDOT":"0.0000000000000","ECCENTRICITY":"0.00014720","TLE_LINE1":"1 48121U 21027AF  22200.84688606  .00002797  00000-0  20656-3 0  9997","SITE":"AFETR","OBJECT_ID":"2021-027AF","ARG_OF_PERICENTER":"100.4500","REV_AT_EPOCH":"7226","APOAPSIS":"548.225","INCLINATION":"53.0556","ELEMENT_SET_NO":"999","GP_ID":"208470412","MEAN_MOTION":"15.06402592","OBJECT_NAME":"STARLINK-2462","TLE_LINE2":"2 48121  53.0556   7.0288 0001472 100.4500 259.6655 15.06402592 72260","CENTER_NAME":"EARTH","MEAN_ANOMALY":"259.6655","CLASSIFICATION_TYPE":"U","RCS_SIZE":"LARGE","MEAN_MOTION_DOT":"0.00002797","PERIAPSIS":"546.186","BSTAR":"0.00020656000000","RA_OF_ASC_NODE":"7.0288","MEAN_ELEMENT_THEORY":"SGP4","EPOCH":"2022-07-19T20:19:30.955584","SEMIMAJOR_AXIS":"6925.341","PERIOD":"95.592","COUNTRY_CODE":"US","NORAD_CAT_ID":"48121","EPHEMERIS_TYPE":"0","TIME_SYSTEM":"UTC","OBJECT_TYPE":"PAYLOAD","REF_FRAME":"TEME","DECAY_DATE":null},{"ECCENTRICITY":"0.00014720","MEAN_MOTION_DDOT":"0.0000000000000","FILE":"3517796","LAUNCH_DATE":"2021-04-07","TLE_LINE2":"2 48122  53.0558   2.0035 0001472  74.3383 285.7769 15.06400097 72349","MEAN_ANOMALY":"285.7769","CENTER_NAME":"EARTH","CLASSIFICATION_TYPE":"U","GP_ID":"208470662","ELEMENT_SET_NO":"999","MEAN_MOTION":"15.06400097","OBJECT_NAME":"STARLINK-2463","TLE_LINE1":"1 48122U 21027AG  22200.84549851  .00001768  00000-0  13754-3 0  9994","SITE":"AFETR","OBJECT_ID":"2021-027AG","ARG_OF_PERICENTER":"74.3383","REV_AT_EPOCH":"7234","INCLINATION":"53.0558","APOAPSIS":"548.233","BSTAR":"0.00013754000000","RA_OF_ASC_NODE":"2.0035","MEAN_ELEMENT_THEORY":"SGP4","EPOCH":"2022-07-19T20:17:31.071264","PERIAPSIS":"546.194","MEAN_MOTION_DOT":"0.00001768","RCS_SIZE":"LARGE","OBJECT_TYPE":"PAYLOAD","REF_FRAME":"TEME","DECAY_DATE":null,"EPHEMERIS_TYPE":"0","TIME_SYSTEM":"UTC","SEMIMAJOR_AXIS":"6925.348","PERIOD":"95.592","COUNTRY_CODE":"US","NORAD_CAT_ID":"48122"},{"ECCENTRICITY":"0.00014600","MEAN_MOTION_DDOT":"0.0000000000000","FILE":"3517796","LAUNCH_DATE":"2021-04-07","TLE_LINE2":"2 48123  53.0565 357.2973 0001460  80.5410 279.5744 15.06404548 72407","CLASSIFICATION_TYPE":"U","CENTER_NAME":"EARTH","MEAN_ANOMALY":"279.5744","GP_ID":"208470913","ELEMENT_SET_NO":"999","MEAN_MOTION":"15.06404548","OBJECT_NAME":"STARLINK-2464","OBJECT_ID":"2021-027AH","TLE_LINE1":"1 48123U 21027AH  22200.78882190  .00001496  00000-0  11926-3 0  9991","SITE":"AFETR","ARG_OF_PERICENTER":"80.5410","REV_AT_EPOCH":"7240","INCLINATION":"53.0565","APOAPSIS":"548.211","BSTAR":"0.00011926000000","RA_OF_ASC_NODE":"357.2973","MEAN_ELEMENT_THEORY":"SGP4","EPOCH":"2022-07-19T18:55:54.212160","PERIAPSIS":"546.189","MEAN_MOTION_DOT":"0.00001496","RCS_SIZE":"LARGE","OBJECT_TYPE":"PAYLOAD","REF_FRAME":"TEME","DECAY_DATE":null,"EPHEMERIS_TYPE":"0","TIME_SYSTEM":"UTC","SEMIMAJOR_AXIS":"6925.335","PERIOD":"95.592","COUNTRY_CODE":"US","NORAD_CAT_ID":"48123"},{"MEAN_ANOMALY":"275.3950","CLASSIFICATION_TYPE":"U","CENTER_NAME":"EARTH","TLE_LINE2":"2 48124  53.0556   7.0058 0001624  84.7225 275.3950 15.06411420 72268","OBJECT_NAME":"STARLINK-2465","GP_ID":"208471164","ELEMENT_SET_NO":"999","MEAN_MOTION":"15.06411420","INCLINATION":"53.0556","APOAPSIS":"548.303","REV_AT_EPOCH":"7226","ARG_OF_PERICENTER":"84.7225","OBJECT_ID":"2021-027AJ","TLE_LINE1":"1 48124U 21027AJ  22200.85425071  .00002263  00000-0  17074-3 0  9994","SITE":"AFETR","ECCENTRICITY":"0.00016240","MEAN_MOTION_DDOT":"0.0000000000000","LAUNCH_DATE":"2021-04-07","FILE":"3517796","DECAY_DATE":null,"REF_FRAME":"TEME","OBJECT_TYPE":"PAYLOAD","TIME_SYSTEM":"UTC","EPHEMERIS_TYPE":"0","NORAD_CAT_ID":"48124","COUNTRY_CODE":"US","PERIOD":"95.591","SEMIMAJOR_AXIS":"6925.314","EPOCH":"2022-07-19T20:30:07.261344","MEAN_ELEMENT_THEORY":"SGP4","RA_OF_ASC_NODE":"7.0058","BSTAR":"0.00017074000000","PERIAPSIS":"546.054","RCS_SIZE":"LARGE","MEAN_MOTION_DOT":"0.00002263"},{"MEAN_MOTION_DDOT":"0.0000000000000","FILE":"3517796","LAUNCH_DATE":"2021-04-07","ECCENTRICITY":"0.00014430","TLE_LINE1":"1 48125U 21027AK  22200.86810238  .00002023  00000-0  15465-3 0  9995","OBJECT_ID":"2021-027AK","SITE":"AFETR","ARG_OF_PERICENTER":"85.5323","REV_AT_EPOCH":"7213","INCLINATION":"53.0565","APOAPSIS":"548.198","TLE_LINE2":"2 48125  53.0565  17.1742 0001443  85.5323 274.5831 15.06404698 72132","MEAN_ANOMALY":"274.5831","CLASSIFICATION_TYPE":"U","CENTER_NAME":"EARTH","MEAN_MOTION":"15.06404698","GP_ID":"208469913","ELEMENT_SET_NO":"999","OBJECT_NAME":"STARLINK-2466","MEAN_MOTION_DOT":"0.00002023","RCS_SIZE":"LARGE","BSTAR":"0.00015465000000","RA_OF_ASC_NODE":"17.1742","MEAN_ELEMENT_THEORY":"SGP4","EPOCH":"2022-07-19T20:50:04.045632","PERIAPSIS":"546.200","SEMIMAJOR_AXIS":"6925.334","PERIOD":"95.592","COUNTRY_CODE":"US","NORAD_CAT_ID":"48125","OBJECT_TYPE":"PAYLOAD","REF_FRAME":"TEME","DECAY_DATE":null,"EPHEMERIS_TYPE":"0","TIME_SYSTEM":"UTC"},{"MEAN_MOTION_DOT":"0.00001773","RCS_SIZE":"LARGE","PERIAPSIS":"546.158","MEAN_ELEMENT_THEORY":"SGP4","EPOCH":"2022-07-19T19:43:41.303712","BSTAR":"0.00013790000000","RA_OF_ASC_NODE":"357.1344","COUNTRY_CODE":"US","NORAD_CAT_ID":"48126","SEMIMAJOR_AXIS":"6925.337","PERIOD":"95.592","EPHEMERIS_TYPE":"0","TIME_SYSTEM":"UTC","REF_FRAME":"TEME","DECAY_DATE":null,"OBJECT_TYPE":"PAYLOAD","LAUNCH_DATE":"2021-04-07","FILE":"3517796","MEAN_MOTION_DDOT":"0.0000000000000","ECCENTRICITY":"0.00015070","REV_AT_EPOCH":"7241","INCLINATION":"53.0560","APOAPSIS":"548.245","TLE_LINE1":"1 48126U 21027AL  22200.82200583  .00001773  00000-0  13790-3 0  9998","OBJECT_ID":"2021-027AL","SITE":"AFETR","ARG_OF_PERICENTER":"84.5750","OBJECT_NAME":"STARLINK-2467","MEAN_MOTION":"15.06403910","GP_ID":"208470162","ELEMENT_SET_NO":"999","TLE_LINE2":"2 48126  53.0560 357.1344 0001507  84.5750 275.5411 15.06403910 72419","CENTER_NAME":"EARTH","MEAN_ANOMALY":"275.5411","CLASSIFICATION_TYPE":"U"},{"FILE":"3517796","LAUNCH_DATE":"2021-04-07","MEAN_MOTION_DDOT":"0.0000000000000","ECCENTRICITY":"0.00014310","ARG_OF_PERICENTER":"76.7602","TLE_LINE1":"1 48127U 21027AM  22200.81278508  .00002676  00000-0  19842-3 0  9997","OBJECT_ID":"2021-027AM","SITE":"AFETR","INCLINATION":"53.0567","APOAPSIS":"548.183","REV_AT_EPOCH":"7212","MEAN_MOTION":"15.06406946","GP_ID":"208471414","ELEMENT_SET_NO":"999","OBJECT_NAME":"STARLINK-2468","MEAN_ANOMALY":"283.3547","CENTER_NAME":"EARTH","CLASSIFICATION_TYPE":"U","TLE_LINE2":"2 48127  53.0567  17.1895 0001431  76.7602 283.3547 15.06406946 72123","RCS_SIZE":"LARGE","MEAN_MOTION_DOT":"0.00002676","PERIAPSIS":"546.201","BSTAR":"0.00019842000000","RA_OF_ASC_NODE":"17.1895","EPOCH":"2022-07-19T19:30:24.630912","MEAN_ELEMENT_THEORY":"SGP4","PERIOD":"95.592","SEMIMAJOR_AXIS":"6925.327","NORAD_CAT_ID":"48127","COUNTRY_CODE":"US","TIME_SYSTEM":"UTC","EPHEMERIS_TYPE":"0","OBJECT_TYPE":"PAYLOAD","DECAY_DATE":null,"REF_FRAME":"TEME"},{"CENTER_NAME":"EARTH","CLASSIFICATION_TYPE":"U","MEAN_ANOMALY":"273.0278","TLE_LINE2":"2 48128  53.0551 307.6570 0001369  87.0868 273.0278 15.06406962 73084","OBJECT_NAME":"STARLINK-2469","GP_ID":"208471665","MEAN_MOTION":"15.06406962","ELEMENT_SET_NO":"999","APOAPSIS":"548.140","INCLINATION":"53.0551","REV_AT_EPOCH":"7308","ARG_OF_PERICENTER":"87.0868","SITE":"AFETR","TLE_LINE1":"1 48128U 21027AN  22200.72710072  .00004044  00000-0  29019-3 0  9993","OBJECT_ID":"2021-027AN","ECCENTRICITY":"0.00013690","MEAN_MOTION_DDOT":"0.0000000000000","LAUNCH_DATE":"2021-04-07","FILE":"3517796","DECAY_DATE":null,"REF_FRAME":"TEME","OBJECT_TYPE":"PAYLOAD","TIME_SYSTEM":"UTC","EPHEMERIS_TYPE":"0","NORAD_CAT_ID":"48128","COUNTRY_CODE":"US","PERIOD":"95.592","SEMIMAJOR_AXIS":"6925.327","EPOCH":"2022-07-19T17:27:01.502208","MEAN_ELEMENT_THEORY":"SGP4","RA_OF_ASC_NODE":"307.6570","BSTAR":"0.00029019000000","PERIAPSIS":"546.244","RCS_SIZE":"LARGE","MEAN_MOTION_DOT":"0.00004044"},{"REV_AT_EPOCH":"7213","INCLINATION":"53.0562","APOAPSIS":"548.098","TLE_LINE1":"1 48129U 21027AP  22200.87176097  .00001423  00000-0  11441-3 0  9991","OBJECT_ID":"2021-027AP","SITE":"AFETR","ARG_OF_PERICENTER":"86.3091","TLE_LINE2":"2 48129  53.0562  16.9201 0001272  86.3091 273.8044 15.06398689 72131","CLASSIFICATION_TYPE":"U","CENTER_NAME":"EARTH","MEAN_ANOMALY":"273.8044","OBJECT_NAME":"STARLINK-2471","MEAN_MOTION":"15.06398689","GP_ID":"208470413","ELEMENT_SET_NO":"999","MEAN_MOTION_DDOT":"0.0000000000000","LAUNCH_DATE":"2021-04-07","FILE":"3517796","ECCENTRICITY":"0.00012720","COUNTRY_CODE":"US","NORAD_CAT_ID":"48129","SEMIMAJOR_AXIS":"6925.353","PERIOD":"95.592","REF_FRAME":"TEME","DECAY_DATE":null,"OBJECT_TYPE":"PAYLOAD","EPHEMERIS_TYPE":"0","TIME_SYSTEM":"UTC","MEAN_MOTION_DOT":"0.00001423","RCS_SIZE":"LARGE","MEAN_ELEMENT_THEORY":"SGP4","EPOCH":"2022-07-19T20:55:20.147808","BSTAR":"0.00011441000000","RA_OF_ASC_NODE":"16.9201","PERIAPSIS":"546.337"}];
